{"fetched_at":"2026-07-16T06:42:31.905Z","source":"https://celestrak.org/NORAD/elements/gp.php?GROUP=kuiper&FORMAT=JSON","constellation":"kuiper","records":[{"OBJECT_NAME":"KUIPER-00130","OBJECT_ID":"2025-228N","EPOCH":"2026-07-15T06:28:47.787456","CLASSIFICATION_TYPE":"U","MEAN_MOTION":14.79934338,"ECCENTRICITY":0.00007358,"INCLINATION":51.9021,"RA_OF_ASC_NODE":146.482,"ARG_OF_PERICENTER":88.4032,"MEAN_ANOMALY":271.7015,"EPHEMERIS_TYPE":0,"NORAD_CAT_ID":65959,"ELEMENT_SET_NO":999,"REV_AT_EPOCH":3255,"BSTAR":0.00022991731,"MEAN_MOTION_DOT":0.00001532,"MEAN_MOTION_DDOT":0},{"OBJECT_NAME":"KUIPER-00134","OBJECT_ID":"2025-228P","EPOCH":"2026-07-15T21:59:01.821984","CLASSIFICATION_TYPE":"U","MEAN_MOTION":15.41839735,"ECCENTRICITY":0.00065639,"INCLINATION":51.8712,"RA_OF_ASC_NODE":57.526,"ARG_OF_PERICENTER":58.3029,"MEAN_ANOMALY":301.8599,"EPHEMERIS_TYPE":0,"NORAD_CAT_ID":65960,"ELEMENT_SET_NO":999,"REV_AT_EPOCH":4355,"BSTAR":0.00027435936,"MEAN_MOTION_DOT":0.00011434,"MEAN_MOTION_DDOT":0},{"OBJECT_NAME":"KUIPER-00135","OBJECT_ID":"2025-228Q","EPOCH":"2026-07-15T07:17:27.482784","CLASSIFICATION_TYPE":"U","MEAN_MOTION":14.7994155,"ECCENTRICITY":0.00007602,"INCLINATION":51.9013,"RA_OF_ASC_NODE":146.3869,"ARG_OF_PERICENTER":78.1129,"MEAN_ANOMALY":281.9919,"EPHEMERIS_TYPE":0,"NORAD_CAT_ID":65961,"ELEMENT_SET_NO":999,"REV_AT_EPOCH":4226,"BSTAR":0.00023354363,"MEAN_MOTION_DOT":0.0000156,"MEAN_MOTION_DDOT":0},{"OBJECT_NAME":"KUIPER-00136","OBJECT_ID":"2025-228R","EPOCH":"2026-07-15T06:32:42.128448","CLASSIFICATION_TYPE":"U","MEAN_MOTION":14.79935894,"ECCENTRICITY":0.00008067,"INCLINATION":51.9003,"RA_OF_ASC_NODE":143.979,"ARG_OF_PERICENTER":72.9176,"MEAN_ANOMALY":287.1875,"EPHEMERIS_TYPE":0,"NORAD_CAT_ID":65962,"ELEMENT_SET_NO":999,"REV_AT_EPOCH":4229,"BSTAR":0.0002404887,"MEAN_MOTION_DOT":0.00001613,"MEAN_MOTION_DDOT":0},{"OBJECT_NAME":"KUIPER-00137","OBJECT_ID":"2025-228S","EPOCH":"2026-07-15T19:34:18.429312","CLASSIFICATION_TYPE":"U","MEAN_MOTION":14.79890614,"ECCENTRICITY":0.00009909,"INCLINATION":51.9017,"RA_OF_ASC_NODE":139.0711,"ARG_OF_PERICENTER":76.6227,"MEAN_ANOMALY":283.4846,"EPHEMERIS_TYPE":0,"NORAD_CAT_ID":65963,"ELEMENT_SET_NO":999,"REV_AT_EPOCH":4241,"BSTAR":0.0001615117,"MEAN_MOTION_DOT":0.00001009,"MEAN_MOTION_DDOT":0},{"OBJECT_NAME":"KUIPER-00138","OBJECT_ID":"2025-228T","EPOCH":"2026-07-15T05:51:48.740832","CLASSIFICATION_TYPE":"U","MEAN_MOTION":14.7994766,"ECCENTRICITY":0.00001568,"INCLINATION":51.8978,"RA_OF_ASC_NODE":139.0304,"ARG_OF_PERICENTER":13.0815,"MEAN_ANOMALY":347.0152,"EPHEMERIS_TYPE":0,"NORAD_CAT_ID":65964,"ELEMENT_SET_NO":999,"REV_AT_EPOCH":4236,"BSTAR":0.00032392902,"MEAN_MOTION_DOT":0.0000225,"MEAN_MOTION_DDOT":0},{"OBJECT_NAME":"KUIPER-00140","OBJECT_ID":"2025-228U","EPOCH":"2026-07-15T05:47:57.165504","CLASSIFICATION_TYPE":"U","MEAN_MOTION":14.79932892,"ECCENTRICITY":0.00007615,"INCLINATION":51.8989,"RA_OF_ASC_NODE":141.6278,"ARG_OF_PERICENTER":83.5007,"MEAN_ANOMALY":276.6042,"EPHEMERIS_TYPE":0,"NORAD_CAT_ID":65965,"ELEMENT_SET_NO":999,"REV_AT_EPOCH":4232,"BSTAR":0.00022434499,"MEAN_MOTION_DOT":0.00001489,"MEAN_MOTION_DDOT":0},{"OBJECT_NAME":"KUIPER-00141","OBJECT_ID":"2025-228V","EPOCH":"2026-07-15T20:30:56.436768","CLASSIFICATION_TYPE":"U","MEAN_MOTION":14.79932962,"ECCENTRICITY":0.00009819,"INCLINATION":51.9025,"RA_OF_ASC_NODE":133.9717,"ARG_OF_PERICENTER":88.768,"MEAN_ANOMALY":271.3394,"EPHEMERIS_TYPE":0,"NORAD_CAT_ID":65966,"ELEMENT_SET_NO":999,"REV_AT_EPOCH":4248,"BSTAR":0.00010843746,"MEAN_MOTION_DOT":0.00000606,"MEAN_MOTION_DDOT":0},{"OBJECT_NAME":"KUIPER-00146","OBJECT_ID":"2025-228W","EPOCH":"2026-07-15T05:03:12.525696","CLASSIFICATION_TYPE":"U","MEAN_MOTION":14.79827336,"ECCENTRICITY":0.00017056,"INCLINATION":51.9031,"RA_OF_ASC_NODE":139.3292,"ARG_OF_PERICENTER":203.1063,"MEAN_ANOMALY":156.9823,"EPHEMERIS_TYPE":0,"NORAD_CAT_ID":65967,"ELEMENT_SET_NO":999,"REV_AT_EPOCH":4235,"BSTAR":0.0037596323,"MEAN_MOTION_DOT":0.00028489,"MEAN_MOTION_DDOT":0},{"OBJECT_NAME":"KUIPER-00149","OBJECT_ID":"2025-228X","EPOCH":"2026-07-15T04:22:24.484512","CLASSIFICATION_TYPE":"U","MEAN_MOTION":14.79928304,"ECCENTRICITY":0.00008953,"INCLINATION":51.9009,"RA_OF_ASC_NODE":134.3426,"ARG_OF_PERICENTER":84.8067,"MEAN_ANOMALY":275.2997,"EPHEMERIS_TYPE":0,"NORAD_CAT_ID":65968,"ELEMENT_SET_NO":999,"REV_AT_EPOCH":4242,"BSTAR":0.00024328645,"MEAN_MOTION_DOT":0.00001634,"MEAN_MOTION_DDOT":0},{"OBJECT_NAME":"KUIPER-00154","OBJECT_ID":"2025-228Y","EPOCH":"2026-07-15T05:14:52.270656","CLASSIFICATION_TYPE":"U","MEAN_MOTION":14.79938268,"ECCENTRICITY":0.00008706,"INCLINATION":51.9,"RA_OF_ASC_NODE":131.6712,"ARG_OF_PERICENTER":83.2724,"MEAN_ANOMALY":276.8337,"EPHEMERIS_TYPE":0,"NORAD_CAT_ID":65969,"ELEMENT_SET_NO":999,"REV_AT_EPOCH":4246,"BSTAR":0.00025478455,"MEAN_MOTION_DOT":0.00001722,"MEAN_MOTION_DDOT":0},{"OBJECT_NAME":"KUIPER-00157","OBJECT_ID":"2025-228Z","EPOCH":"2026-07-15T04:58:43.648896","CLASSIFICATION_TYPE":"U","MEAN_MOTION":14.81196534,"ECCENTRICITY":0.00010685,"INCLINATION":51.9022,"RA_OF_ASC_NODE":134.2726,"ARG_OF_PERICENTER":51.1508,"MEAN_ANOMALY":308.955,"EPHEMERIS_TYPE":0,"NORAD_CAT_ID":65970,"ELEMENT_SET_NO":999,"REV_AT_EPOCH":4242,"BSTAR":0.00020255232,"MEAN_MOTION_DOT":0.00001368,"MEAN_MOTION_DDOT":0},{"OBJECT_NAME":"KUIPER-00144","OBJECT_ID":"2025-301A","EPOCH":"2026-07-15T08:02:20.224320","CLASSIFICATION_TYPE":"U","MEAN_MOTION":14.79940622,"ECCENTRICITY":0.00003457,"INCLINATION":51.9009,"RA_OF_ASC_NODE":211.1708,"ARG_OF_PERICENTER":62.7272,"MEAN_ANOMALY":297.3725,"EPHEMERIS_TYPE":0,"NORAD_CAT_ID":67133,"ELEMENT_SET_NO":999,"REV_AT_EPOCH":3277,"BSTAR":0.0001564137,"MEAN_MOTION_DOT":0.00000972,"MEAN_MOTION_DDOT":0},{"OBJECT_NAME":"KUIPER-00164","OBJECT_ID":"2025-301B","EPOCH":"2026-07-15T10:45:19.860192","CLASSIFICATION_TYPE":"U","MEAN_MOTION":14.76500518,"ECCENTRICITY":0.00011458,"INCLINATION":51.9025,"RA_OF_ASC_NODE":223.0915,"ARG_OF_PERICENTER":358.7999,"MEAN_ANOMALY":1.2959,"EPHEMERIS_TYPE":0,"NORAD_CAT_ID":67134,"ELEMENT_SET_NO":999,"REV_AT_EPOCH":3279,"BSTAR":0.00013198726,"MEAN_MOTION_DOT":0.00000713,"MEAN_MOTION_DDOT":0},{"OBJECT_NAME":"KUIPER-00175","OBJECT_ID":"2025-301C","EPOCH":"2026-07-15T12:13:05.870208","CLASSIFICATION_TYPE":"U","MEAN_MOTION":14.80001368,"ECCENTRICITY":0.0000854,"INCLINATION":51.8988,"RA_OF_ASC_NODE":205.3605,"ARG_OF_PERICENTER":132.1284,"MEAN_ANOMALY":227.9751,"EPHEMERIS_TYPE":0,"NORAD_CAT_ID":67135,"ELEMENT_SET_NO":999,"REV_AT_EPOCH":3294,"BSTAR":0.00017257,"MEAN_MOTION_DOT":0.00001097,"MEAN_MOTION_DDOT":0},{"OBJECT_NAME":"KUIPER-00179","OBJECT_ID":"2025-301D","EPOCH":"2026-07-15T14:15:48.310560","CLASSIFICATION_TYPE":"U","MEAN_MOTION":14.79936572,"ECCENTRICITY":0.00003614,"INCLINATION":51.8974,"RA_OF_ASC_NODE":219.9957,"ARG_OF_PERICENTER":73.4623,"MEAN_ANOMALY":286.6379,"EPHEMERIS_TYPE":0,"NORAD_CAT_ID":67136,"ELEMENT_SET_NO":999,"REV_AT_EPOCH":3285,"BSTAR":0.00016368477,"MEAN_MOTION_DOT":0.00001027,"MEAN_MOTION_DDOT":0},{"OBJECT_NAME":"KUIPER-00181","OBJECT_ID":"2025-301E","EPOCH":"2026-07-15T13:56:20.705280","CLASSIFICATION_TYPE":"U","MEAN_MOTION":14.79923965,"ECCENTRICITY":0.0000971,"INCLINATION":51.902,"RA_OF_ASC_NODE":232.5925,"ARG_OF_PERICENTER":71.2078,"MEAN_ANOMALY":288.8989,"EPHEMERIS_TYPE":0,"NORAD_CAT_ID":67137,"ELEMENT_SET_NO":999,"REV_AT_EPOCH":3265,"BSTAR":0.00016774,"MEAN_MOTION_DOT":0.00001057,"MEAN_MOTION_DDOT":0},{"OBJECT_NAME":"KUIPER-00183","OBJECT_ID":"2025-301F","EPOCH":"2026-07-15T07:42:24.377472","CLASSIFICATION_TYPE":"U","MEAN_MOTION":14.92763882,"ECCENTRICITY":0.00096352,"INCLINATION":51.8923,"RA_OF_ASC_NODE":205.9965,"ARG_OF_PERICENTER":124.0999,"MEAN_ANOMALY":236.0884,"EPHEMERIS_TYPE":0,"NORAD_CAT_ID":67138,"ELEMENT_SET_NO":999,"REV_AT_EPOCH":3301,"BSTAR":0.0001800522,"MEAN_MOTION_DOT":0.00001631,"MEAN_MOTION_DDOT":0},{"OBJECT_NAME":"KUIPER-00184","OBJECT_ID":"2025-301G","EPOCH":"2026-07-15T10:20:25.428768","CLASSIFICATION_TYPE":"U","MEAN_MOTION":14.79936,"ECCENTRICITY":0.0000328,"INCLINATION":51.8978,"RA_OF_ASC_NODE":215.7223,"ARG_OF_PERICENTER":71.0613,"MEAN_ANOMALY":289.0384,"EPHEMERIS_TYPE":0,"NORAD_CAT_ID":67139,"ELEMENT_SET_NO":999,"REV_AT_EPOCH":3299,"BSTAR":0.00015524787,"MEAN_MOTION_DOT":0.00000963,"MEAN_MOTION_DDOT":0},{"OBJECT_NAME":"KUIPER-00186","OBJECT_ID":"2025-301H","EPOCH":"2026-07-15T11:30:30.858912","CLASSIFICATION_TYPE":"U","MEAN_MOTION":14.7993234,"ECCENTRICITY":0.00003801,"INCLINATION":51.9018,"RA_OF_ASC_NODE":233.0516,"ARG_OF_PERICENTER":80.6961,"MEAN_ANOMALY":279.4044,"EPHEMERIS_TYPE":0,"NORAD_CAT_ID":67140,"ELEMENT_SET_NO":999,"REV_AT_EPOCH":3248,"BSTAR":-0.000006044249,"MEAN_MOTION_DOT":-0.00000267,"MEAN_MOTION_DDOT":0},{"OBJECT_NAME":"KUIPER-00187","OBJECT_ID":"2025-301J","EPOCH":"2026-07-15T09:49:25.687776","CLASSIFICATION_TYPE":"U","MEAN_MOTION":14.79934502,"ECCENTRICITY":0.0000419,"INCLINATION":51.9027,"RA_OF_ASC_NODE":235.8857,"ARG_OF_PERICENTER":98.1242,"MEAN_ANOMALY":261.9767,"EPHEMERIS_TYPE":0,"NORAD_CAT_ID":67141,"ELEMENT_SET_NO":999,"REV_AT_EPOCH":3243,"BSTAR":0.00016532555,"MEAN_MOTION_DOT":0.0000104,"MEAN_MOTION_DDOT":0},{"OBJECT_NAME":"KUIPER-00188","OBJECT_ID":"2025-301K","EPOCH":"2026-07-15T17:57:28.676448","CLASSIFICATION_TYPE":"U","MEAN_MOTION":14.79924802,"ECCENTRICITY":0.00004463,"INCLINATION":51.9014,"RA_OF_ASC_NODE":201.9734,"ARG_OF_PERICENTER":71.4336,"MEAN_ANOMALY":288.6675,"EPHEMERIS_TYPE":0,"NORAD_CAT_ID":67142,"ELEMENT_SET_NO":999,"REV_AT_EPOCH":3293,"BSTAR":0.00017379819,"MEAN_MOTION_DOT":0.00001104,"MEAN_MOTION_DDOT":0},{"OBJECT_NAME":"KUIPER-00191","OBJECT_ID":"2025-301L","EPOCH":"2026-07-15T10:49:39.959616","CLASSIFICATION_TYPE":"U","MEAN_MOTION":14.79930738,"ECCENTRICITY":0.00003503,"INCLINATION":51.9,"RA_OF_ASC_NODE":228.1877,"ARG_OF_PERICENTER":88.1171,"MEAN_ANOMALY":271.9831,"EPHEMERIS_TYPE":0,"NORAD_CAT_ID":67143,"ELEMENT_SET_NO":999,"REV_AT_EPOCH":3257,"BSTAR":-0.000004913297,"MEAN_MOTION_DOT":-0.00000258,"MEAN_MOTION_DDOT":0}]}
